NORAD_CAT_ID,OBJECT_NAME,OBJECT_TYPE,EPOCH,MEAN_MOTION,ECCENTRICITY,INCLINATION,RA_OF_ASC_NODE,ARG_OF_PERICENTER,MEAN_ANOMALY,BSTAR,MEAN_MOTION_DOT,MEAN_MOTION_DDOT,TLE_LINE0,TLE_LINE1,TLE_LINE2,SEMIMAJOR_AXIS,PERIOD,APOGEE,PERIGEE,DECAYED
53718.0,STARLINK-4695,PAYLOAD,2023-09-10 14:09:59,15.08842531,0.0001227,53.2189,23.8417,88.1,272.0133,0.00011559,1.552e-05,0.0,0 STARLINK-4695,1 53718U 22107U   23253.59027485  .00001552  00000-0  11559-3 0  9998,2 53718  53.2189  23.8417 0001227  88.1000 272.0133 15.08842531 56868,6917.873,95.437,540.586,538.889,0.0
53718.0,STARLINK-4695,PAYLOAD,2023-09-11 14:00:47,15.08834004,0.0001215,53.2189,19.3812,89.8887,270.2244,7.6053e-05,9.23e-06,0.0,0 STARLINK-4695,1 53718U 22107U   23254.58388308  .00000923  00000-0  76053-4 0  9994,2 53718  53.2189  19.3812 0001215  89.8887 270.2244 15.08834004 57012,6917.899,95.438,540.604,538.923,0.0
53718.0,STARLINK-4695,PAYLOAD,2023-09-11 15:36:10,15.08839499,0.0001124,53.2187,19.0841,88.014,272.0981,0.00012397,1.686e-05,0.0,0 STARLINK-4695,1 53718U 22107U   23254.65011887  .00001686  00000-0  12397-3 0  9994,2 53718  53.2187  19.0841 0001124  88.0140 272.0981 15.08839499 56572,6917.882,95.438,540.524,538.969,0.0
53718.0,STARLINK-4695,PAYLOAD,2023-09-12 13:51:33,15.08847071,0.0001258,53.2194,14.9229,77.9631,282.1502,7.9695e-05,9.81e-06,0.0,0 STARLINK-4695,1 53718U 22107U   23255.57747605  .00000981  00000-0  79695-4 0  9992,2 53718  53.2194  14.9229 0001258  77.9631 282.1502 15.08847071 57166,6917.859,95.437,540.594,538.854,0.0
53718.0,STARLINK-4695,PAYLOAD,2023-09-12 17:02:19,15.08848827,0.0001457,53.2175,14.3266,91.6924,268.4235,9.9865e-05,1.302e-05,0.0,0 STARLINK-4695,1 53718U 22107U   23255.70995328  .00001302  00000-0  99865-4 0  9993,2 53718  53.2175  14.3266 0001457  91.6924 268.4235 15.08848827 56731,6917.853,95.437,540.726,538.71,0.0
53718.0,STARLINK-4695,PAYLOAD,2023-09-13 13:42:20,15.08853439,0.0001465,53.2188,10.4615,76.6707,283.4448,0.00024309,3.584e-05,0.0,0 STARLINK-4695,1 53718U 22107U   23256.57107013  .00003584  00000-0  24309-3 0  9999,2 53718  53.2188  10.4615 0001465  76.6707 283.4448 15.08853439 57314,6917.839,95.437,540.718,538.691,0.0
53718.0,STARLINK-4695,PAYLOAD,2023-09-13 16:53:06,15.08862501,0.0001257,53.2185,9.8652,72.3488,287.7641,0.00032022,4.815e-05,0.0,0 STARLINK-4695,1 53718U 22107U   23256.70354363  .00004815  00000-0  32022-3 0  9995,2 53718  53.2185   9.8652 0001257  72.3488 287.7641 15.08862501 57336,6917.812,95.436,540.546,538.807,0.0
53718.0,STARLINK-4695,PAYLOAD,2023-09-14 00:50:03,15.08833565,0.0001304,53.2191,8.3811,84.6842,275.4299,-0.00010499,-1.958e-05,0.0,0 STARLINK-4695,1 53718U 22107U   23257.03475795 -.00001958  00000-0 -10499-3 0  9996,2 53718  53.2191   8.3811 0001304  84.6842 275.4299 15.08833565 56933,6917.9,95.438,540.667,538.863,0.0
53718.0,STARLINK-4695,PAYLOAD,2023-09-14 13:33:09,15.08814776,0.0001467,53.2189,6.0038,78.8696,281.2461,-0.00028259,-4.779e-05,0.0,0 STARLINK-4695,1 53718U 22107U   23257.56469394 -.00004779  00000-0 -28259-3 0  9999,2 53718  53.2189   6.0038 0001467  78.8696 281.2461 15.08814776 57466,6917.957,95.439,540.837,538.808,0.0
53718.0,STARLINK-4695,PAYLOAD,2023-09-14 16:43:55,15.08822108,0.0001548,53.2179,5.4079,82.3052,277.8116,-0.00024827,-4.235e-05,0.0,0 STARLINK-4695,1 53718U 22107U   23257.69717156 -.00004235  00000-0 -24827-3 0  9999,2 53718  53.2179   5.4079 0001548  82.3052 277.8116 15.08822108 57038,6917.935,95.439,540.871,538.729,0.0
53718.0,STARLINK-4695,PAYLOAD,2023-09-15 00:40:51,15.08831538,0.0001462,53.2189,3.9205,83.6703,276.4456,-4.4564e-05,-9.97e-06,0.0,0 STARLINK-4695,1 53718U 22107U   23258.02836940 -.00000997  00000-0 -44564-4 0  9992,2 53718  53.2189   3.9205 0001462  83.6703 276.4456 15.08831538 57089,6917.906,95.438,540.783,538.76,0.0
53718.0,STARLINK-4695,PAYLOAD,2023-09-15 13:23:55,15.08846035,0.000124,53.2183,1.5406,87.7046,272.4088,0.00035989,5.445e-05,0.0,0 STARLINK-4695,1 53718U 22107U   23258.55828562  .00005445  00000-0  35989-3 0  9992,2 53718  53.2183   1.5406 0001240  87.7046 272.4088 15.08846035 57613,6917.862,95.437,540.585,538.869,0.0
53718.0,STARLINK-4695,PAYLOAD,2023-09-16 10:03:56,15.08847506,0.000134,53.2187,357.6762,87.2408,272.8738,0.00043967,6.718e-05,0.0,0 STARLINK-4695,1 53718U 22107U   23259.41940957  .00006718  00000-0  43967-3 0  9990,2 53718  53.2187 357.6762 0001340  87.2408 272.8738 15.08847506 57299,6917.857,95.437,540.649,538.795,0.0
53718.0,STARLINK-4695,PAYLOAD,2023-09-16 13:14:42,15.08849876,0.0001254,53.218,357.0807,110.5799,249.5328,0.00035112,5.306e-05,0.0,0 STARLINK-4695,1 53718U 22107U   23259.55188515  .00005306  00000-0  35112-3 0  9994,2 53718  53.2180 357.0807 0001254 110.5799 249.5328 15.08849876 57763,6917.85,95.437,540.583,538.848,0.0
53718.0,STARLINK-4695,PAYLOAD,2023-09-17 13:05:29,15.08852917,0.0001184,53.2178,352.6213,92.566,267.5468,0.00015198,2.133e-05,0.0,0 STARLINK-4695,1 53718U 22107U   23260.54548137  .00002133  00000-0  15198-3 0  9992,2 53718  53.2178 352.6213 0001184  92.5660 267.5468 15.08852917 57912,6917.841,95.437,540.525,538.887,0.0
53718.0,STARLINK-4695,PAYLOAD,2023-09-17 22:37:48,15.08854556,0.0001179,53.2176,350.8375,84.0269,276.0857,0.00016095,2.276e-05,0.0,0 STARLINK-4695,1 53718U 22107U   23260.94291835  .00002276  00000-0  16095-3 0  9991,2 53718  53.2176 350.8375 0001179  84.0269 276.0857 15.08854556 57529,6917.836,95.437,540.517,538.885,0.0
53718.0,STARLINK-4695,PAYLOAD,2023-09-18 11:20:53,15.08850939,0.0001409,53.2179,348.4618,91.5419,268.5735,0.00018976,2.734e-05,0.0,0 STARLINK-4695,1 53718U 22107U   23261.47283775  .00002734  00000-0  18976-3 0  9993,2 53718  53.2179 348.4618 0001409  91.5419 268.5735 15.08850939 58052,6917.847,95.437,540.687,538.737,0.0
53718.0,STARLINK-4695,PAYLOAD,2023-09-19 09:36:16,15.08844566,0.000129,53.2175,344.2965,93.2509,266.8631,7.2869e-05,8.72e-06,0.0,0 STARLINK-4695,1 53718U 22107U   23262.40019638  .00000872  00000-0  72869-4 0  9995,2 53718  53.2175 344.2965 0001290  93.2509 266.8631 15.08844566 57744,6917.866,95.437,540.624,538.839,0.0
53718.0,STARLINK-4695,PAYLOAD,2023-09-19 12:47:02,15.08856913,0.0001336,53.2173,343.701,102.1786,257.9356,0.00024271,3.579e-05,0.0,0 STARLINK-4695,1 53718U 22107U   23262.53266842  .00003579  00000-0  24271-3 0  9990,2 53718  53.2173 343.7010 0001336 102.1786 257.9356 15.08856913 57761,6917.829,95.436,540.618,538.769,0.0
53718.0,STARLINK-4695,PAYLOAD,2023-09-20 12:37:51,15.08815191,0.000143,53.2175,339.2401,75.6108,284.5043,-0.00034499,-5.77e-05,0.0,0 STARLINK-4695,1 53718U 22107U   23263.52629587 -.00005770  00000-0 -34499-3 0  9999,2 53718  53.2175 339.2401 0001430  75.6108 284.5043 15.08815191 57913,6917.956,95.439,540.81,538.832,0.0
53718.0,STARLINK-4695,PAYLOAD,2023-09-21 10:53:15,15.08832633,0.0001776,53.2182,335.0734,67.1119,293.0061,-3.2592e-05,-8.07e-06,0.0,0 STARLINK-4695,1 53718U 22107U   23264.45365604 -.00000807  00000-0 -32592-4 0  9998,2 53718  53.2182 335.0734 0001776  67.1119 293.0061 15.08832633 58056,6917.903,95.438,540.997,538.539,0.0
53718.0,STARLINK-4695,PAYLOAD,2023-09-21 12:28:38,15.08836363,0.0001796,53.2181,334.7772,61.9738,298.1436,4.0633e-05,3.59e-06,0.0,0 STARLINK-4695,1 53718U 22107U   23264.51989527  .00000359  00000-0  40633-4 0  9996,2 53718  53.2181 334.7772 0001796  61.9738 298.1436 15.08836363 58511,6917.892,95.438,540.999,538.514,0.0
53718.0,STARLINK-4695,PAYLOAD,2023-09-21 17:14:48,15.08845884,0.0001444,53.2177,333.8853,75.6985,284.4168,0.00019827,2.869e-05,0.0,0 STARLINK-4695,1 53718U 22107U   23264.71861159  .00002869  00000-0  19827-3 0  9996,2 53718  53.2177 333.8853 0001444  75.6985 284.4168 15.08845884 58093,6917.862,95.437,540.726,538.728,0.0
53718.0,STARLINK-4695,PAYLOAD,2023-09-21 22:00:57,15.08841385,0.0001211,53.2173,332.993,94.3779,265.7351,0.0001593,2.248e-05,0.0,0 STARLINK-4695,1 53718U 22107U   23264.91733302  .00002248  00000-0  15930-3 0  9998,2 53718  53.2173 332.9930 0001211  94.3779 265.7351 15.08841385 58577,6917.876,95.437,540.579,538.903,0.0
53718.0,STARLINK-4695,PAYLOAD,2023-09-22 04:22:31,15.08805252,0.000148,53.2174,331.8035,85.1799,274.9362,0.0012478,0.00019608,0.0,0 STARLINK-4695,1 53718U 22107U   23265.18231464  .00019608  00000-0  12478-2 0  9991,2 53718  53.2174 331.8035 0001480  85.1799 274.9362 15.08805252 58162,6917.987,95.44,540.875,538.828,0.0
53718.0,STARLINK-4695,PAYLOAD,2023-09-22 10:44:02,15.08850703,0.0001527,53.2168,330.6164,70.2686,289.847,0.00061196,9.468e-05,0.0,0 STARLINK-4695,1 53718U 22107U   23265.44725682  .00009468  00000-0  61196-3 0  9995,2 53718  53.2168 330.6164 0001527  70.2686 289.8470 15.08850703 58208,6917.848,95.437,540.769,538.656,0.0
53718.0,STARLINK-4695,PAYLOAD,2023-09-22 21:51:44,15.0886105,0.0001451,53.216,328.5357,69.9967,290.1181,0.00050937,7.833e-05,0.0,0 STARLINK-4695,1 53718U 22107U   23265.91093017  .00007833  00000-0  50937-3 0  9992,2 53718  53.2160 328.5357 0001451  69.9967 290.1181 15.08861050 58721,6917.816,95.436,540.685,538.677,0.0
53718.0,STARLINK-4695,PAYLOAD,2023-09-23 12:11:30,15.06244275,0.0012992,53.2178,325.8625,94.5349,265.7127,-0.061529,-0.00851364,0.0,0 STARLINK-4695,1 53718U 22107U   23266.50799358 -.00851364  00000-0 -61529-1 0  9994,2 53718  53.2178 325.8625 0012992  94.5349 265.7127 15.06244275 58368,6925.826,95.602,556.689,538.693,0.0
53718.0,STARLINK-4695,PAYLOAD,2023-09-23 22:00:01,15.07956944,0.0001453,53.2169,324.0221,75.9178,348.8504,-0.031931,-0.00469563,0.0,0 STARLINK-4695,1 53718U 22107U   23266.91668981 -.00469563  00000-0 -31931-1 0  9996,2 53718  53.2169 324.0221 0001453  75.9178 348.8504 15.07956944 58427,6920.581,95.493,543.451,541.44,0.0
53718.0,STARLINK-4695,PAYLOAD,2023-09-24 14:00:01,15.07205111,0.0001501,53.2169,321.0367,70.7562,14.2499,2.0709e-05,3.2e-07,0.0,0 STARLINK-4695,1 53718U 22107U   23267.58334491  .00000032  00000-0  20709-4 0  9990,2 53718  53.2169 321.0367 0001501  70.7562  14.2499 15.07205111 58520,6922.882,95.541,545.786,543.708,0.0
